CTC2_L_00041001-01
1 10000U 24173DW  26075.70040509  .00000000  00000+0  00000-0 0  9992
2 10000  80.0000   0.0000 0000000   0.0000   0.0000 15.59190035    10
CTC2_L_00041001-02
1 10001U 26636VX  26075.70040509  .00000000  00000+0  00000-0 0  9999
2 10001  80.0000   0.0000 0000000   0.0000  90.0000 15.59190035    10
CTC2_L_00041001-03
1 10002U 24011KU  26075.70040509  .00000000  00000+0  00000-0 0  9995
2 10002  80.0000   0.0000 0000000   0.0000 180.0000 15.59190035    11
CTC2_L_00041001-04
1 10003U 26827AU  26075.70040509  .00000000  00000+0  00000-0 0  9993
2 10003  80.0000   0.0000 0000000   0.0000 270.0000 15.59190035    12
CTC2_L_00041002-01
1 10004U 22414SS  26075.70040509  .00000000  00000+0  00000-0 0  9992
2 10004  80.0000  12.0000 0000000   0.0000  12.0000 15.59190035    10
CTC2_L_00041002-02
1 10005U 22087WK  26075.70040509  .00000000  00000+0  00000-0 0  9999
2 10005  80.0000  12.0000 0000000   0.0000 102.0000 15.59190035    11
CTC2_L_00041002-03
1 10006U 23083HG  26075.70040509  .00000000  00000+0  00000-0 0  9997
2 10006  80.0000  12.0000 0000000   0.0000 192.0000 15.59190035    11
CTC2_L_00041002-04
1 10007U 25820QY  26075.70040509  .00000000  00000+0  00000-0 0  9999
2 10007  80.0000  12.0000 0000000   0.0000 282.0000 15.59190035    12
CTC2_L_00041003-01
1 10008U 22548QW  26075.70040509  .00000000  00000+0  00000-0 0  9994
2 10008  80.0000  24.0000 0000000   0.0000  24.0000 15.59190035    10
CTC2_L_00041003-02
1 10009U 26721D   26075.70040509  .00000000  00000+0  00000-0 0  9992
2 10009  80.0000  24.0000 0000000   0.0000 114.0000 15.59190035    11
CTC2_L_00041003-03
1 10010U 22749AC  26075.70040509  .00000000  00000+0  00000-0 0  9990
2 10010  80.0000  24.0000 0000000   0.0000 204.0000 15.59190035    13
CTC2_L_00041003-04
1 10011U 23950ZR  26075.70040509  .00000000  00000+0  00000-0 0  9996
2 10011  80.0000  24.0000 0000000   0.0000 294.0000 15.59190035    13
CTC2_L_00041004-01
1 10012U 24212TS  26075.70040509  .00000000  00000+0  00000-0 0  9999
2 10012  80.0000  36.0000 0000000   0.0000  36.0000 15.59190035    11
CTC2_L_00041004-02
1 10013U 26364BT  26075.70040509  .00000000  00000+0  00000-0 0  9990
2 10013  80.0000  36.0000 0000000   0.0000 126.0000 15.59190035    12
CTC2_L_00041004-03
1 10014U 25340CV  26075.70040509  .00000000  00000+0  00000-0 0  9994
2 10014  80.0000  36.0000 0000000   0.0000 216.0000 15.59190035    13
CTC2_L_00041004-04
1 10015U 22125GK  26075.70040509  .00000000  00000+0  00000-0 0  9993
2 10015  80.0000  36.0000 0000000   0.0000 306.0000 15.59190035    14
CTC2_L_00041005-01
1 10016U 23484DZ  26075.70040509  .00000000  00000+0  00000-0 0  9993
2 10016  80.0000  48.0000 0000000   0.0000  48.0000 15.59190035    11
CTC2_L_00041005-02
1 10017U 22534NJ  26075.70040509  .00000000  00000+0  00000-0 0  9999
2 10017  80.0000  48.0000 0000000   0.0000 138.0000 15.59190035    12
CTC2_L_00041005-03
1 10018U 24805TI  26075.70040509  .00000000  00000+0  00000-0 0  9993
2 10018  80.0000  48.0000 0000000   0.0000 228.0000 15.59190035    13
CTC2_L_00041005-04
1 10019U 22988XZ  26075.70040509  .00000000  00000+0  00000-0 0  9994
2 10019  80.0000  48.0000 0000000   0.0000 318.0000 15.59190035    14
CTC2_L_00041006-01
1 10020U 25670MA  26075.70040509  .00000000  00000+0  00000-0 0  9997
2 10020  80.0000  60.0000 0000000   0.0000  60.0000 15.59190035    14
CTC2_L_00041006-02
1 10021U 22119SX  26075.70040509  .00000000  00000+0  00000-0 0  9993
2 10021  80.0000  60.0000 0000000   0.0000 150.0000 15.59190035    15
CTC2_L_00041006-03
1 10022U 23573HB  26075.70040509  .00000000  00000+0  00000-0 0  9999
2 10022  80.0000  60.0000 0000000   0.0000 240.0000 15.59190035    16
CTC2_L_00041006-04
1 10023U 23626JX  26075.70040509  .00000000  00000+0  00000-0 0  9999
2 10023  80.0000  60.0000 0000000   0.0000 330.0000 15.59190035    17
CTC2_L_00041007-01
1 10024U 26929EU  26075.70040509  .00000000  00000+0  00000-0 0  9999
2 10024  80.0000  72.0000 0000000   0.0000  72.0000 15.59190035    14
CTC2_L_00041007-02
1 10025U 22218FO  26075.70040509  .00000000  00000+0  00000-0 0  9997
2 10025  80.0000  72.0000 0000000   0.0000 162.0000 15.59190035    15
CTC2_L_00041007-03
1 10026U 26156KO  26075.70040509  .00000000  00000+0  00000-0 0  9993
2 10026  80.0000  72.0000 0000000   0.0000 252.0000 15.59190035    16
CTC2_L_00041007-04
1 10027U 24016OU  26075.70040509  .00000000  00000+0  00000-0 0  9997
2 10027  80.0000  72.0000 0000000   0.0000 342.0000 15.59190035    17
CTC2_L_00041008-01
1 10028U 26532VW  26075.70040509  .00000000  00000+0  00000-0 0  9993
2 10028  80.0000  84.0000 0000000   0.0000  84.0000 15.59190035    14
CTC2_L_00041008-02
1 10029U 25746AH  26075.70040509  .00000000  00000+0  00000-0 0  9990
2 10029  80.0000  84.0000 0000000   0.0000 174.0000 15.59190035    15
CTC2_L_00041008-03
1 10030U 23015QK  26075.70040509  .00000000  00000+0  00000-0 0  9999
2 10030  80.0000  84.0000 0000000   0.0000 264.0000 15.59190035    17
CTC2_L_00041008-04
1 10031U 24510IQ  26075.70040509  .00000000  00000+0  00000-0 0  9991
2 10031  80.0000  84.0000 0000000   0.0000 354.0000 15.59190035    18
CTC2_L_00041009-01
1 10032U 25091GY  26075.70040509  .00000000  00000+0  00000-0 0  9997
2 10032  80.0000  96.0000 0000000   0.0000  96.0000 15.59190035    15
CTC2_L_00041009-02
1 10033U 23217RZ  26075.70040509  .00000000  00000+0  00000-0 0  9996
2 10033  80.0000  96.0000 0000000   0.0000 186.0000 15.59190035    16
CTC2_L_00041009-03
1 10034U 23551SV  26075.70040509  .00000000  00000+0  00000-0 0  9998
2 10034  80.0000  96.0000 0000000   0.0000 276.0000 15.59190035    17
CTC2_L_00041009-04
1 10035U 25033PG  26075.70040509  .00000000  00000+0  00000-0 0  9996
2 10035  80.0000  96.0000 0000000   0.0000   6.0000 15.59190035    19
CTC2_L_00041010-01
1 10036U 22260TZ  26075.70040509  .00000000  00000+0  00000-0 0  9996
2 10036  80.0000 108.0000 0000000   0.0000 108.0000 15.59190035    17
CTC2_L_00041010-02
1 10037U 25805ZZ  26075.70040509  .00000000  00000+0  00000-0 0  9995
2 10037  80.0000 108.0000 0000000   0.0000 198.0000 15.59190035    17
CTC2_L_00041010-03
1 10038U 23085TY  26075.70040509  .00000000  00000+0  00000-0 0  9994
2 10038  80.0000 108.0000 0000000   0.0000 288.0000 15.59190035    18
CTC2_L_00041010-04
1 10039U 23613JL  26075.70040509  .00000000  00000+0  00000-0 0  9992
2 10039  80.0000 108.0000 0000000   0.0000  18.0000 15.59190035    10
CTC2_L_00041011-01
1 10040U 25310AA  26075.70040509  .00000000  00000+0  00000-0 0  9990
2 10040  80.0000 120.0000 0000000   0.0000 120.0000 15.59190035    10
CTC2_L_00041011-02
1 10041U 22254QU  26075.70040509  .00000000  00000+0  00000-0 0  9995
2 10041  80.0000 120.0000 0000000   0.0000 210.0000 15.59190035    11
CTC2_L_00041011-03
1 10042U 26886LB  26075.70040509  .00000000  00000+0  00000-0 0  9991
2 10042  80.0000 120.0000 0000000   0.0000 300.0000 15.59190035    12
CTC2_L_00041011-04
1 10043U 22085PM  26075.70040509  .00000000  00000+0  00000-0 0  9999
2 10043  80.0000 120.0000 0000000   0.0000  30.0000 15.59190035    13
CTC2_L_00041012-01
1 10044U 26443NY  26075.70040509  .00000000  00000+0  00000-0 0  9992
2 10044  80.0000 132.0000 0000000   0.0000 132.0000 15.59190035    10
CTC2_L_00041012-02
1 10045U 26407LW  26075.70040509  .00000000  00000+0  00000-0 0  9993
2 10045  80.0000 132.0000 0000000   0.0000 222.0000 15.59190035    11
CTC2_L_00041012-03
1 10046U 24754GQ  26075.70040509  .00000000  00000+0  00000-0 0  9997
2 10046  80.0000 132.0000 0000000   0.0000 312.0000 15.59190035    12
CTC2_L_00041012-04
1 10047U 22002F   26075.70040509  .00000000  00000+0  00000-0 0  9992
2 10047  80.0000 132.0000 0000000   0.0000  42.0000 15.59190035    13
CTC2_L_00041013-01
1 10048U 26155IV  26075.70040509  .00000000  00000+0  00000-0 0  9996
2 10048  80.0000 144.0000 0000000   0.0000 144.0000 15.59190035    10
CTC2_L_00041013-02
1 10049U 23474A   26075.70040509  .00000000  00000+0  00000-0 0  9998
2 10049  80.0000 144.0000 0000000   0.0000 234.0000 15.59190035    11
CTC2_L_00041013-03
1 10050U 25317BB  26075.70040509  .00000000  00000+0  00000-0 0  9998
2 10050  80.0000 144.0000 0000000   0.0000 324.0000 15.59190035    13
CTC2_L_00041013-04
1 10051U 25427DE  26075.70040509  .00000000  00000+0  00000-0 0  9991
2 10051  80.0000 144.0000 0000000   0.0000  54.0000 15.59190035    14
CTC2_L_00041014-01
1 10052U 26863WL  26075.70040509  .00000000  00000+0  00000-0 0  9997
2 10052  80.0000 156.0000 0000000   0.0000 156.0000 15.59190035    11
CTC2_L_00041014-02
1 10053U 25358XU  26075.70040509  .00000000  00000+0  00000-0 0  9996
2 10053  80.0000 156.0000 0000000   0.0000 246.0000 15.59190035    12
CTC2_L_00041014-03
1 10054U 26519GS  26075.70040509  .00000000  00000+0  00000-0 0  9997
2 10054  80.0000 156.0000 0000000   0.0000 336.0000 15.59190035    13
CTC2_L_00041014-04
1 10055U 26426IY  26075.70040509  .00000000  00000+0  00000-0 0  9995
2 10055  80.0000 156.0000 0000000   0.0000  66.0000 15.59190035    14
CTC2_L_00041015-01
1 10056U 24754ER  26075.70040509  .00000000  00000+0  00000-0 0  9998
2 10056  80.0000 168.0000 0000000   0.0000 168.0000 15.59190035    11
CTC2_L_00041015-02
1 10057U 25084AR  26075.70040509  .00000000  00000+0  00000-0 0  9996
2 10057  80.0000 168.0000 0000000   0.0000 258.0000 15.59190035    12
CTC2_L_00041015-03
1 10058U 24092XS  26075.70040509  .00000000  00000+0  00000-0 0  9995
2 10058  80.0000 168.0000 0000000   0.0000 348.0000 15.59190035    13
CTC2_L_00041015-04
1 10059U 24378AG  26075.70040509  .00000000  00000+0  00000-0 0  9993
2 10059  80.0000 168.0000 0000000   0.0000  78.0000 15.59190035    14
CTC2_L_00041016-01
1 10060U 24941MD  26075.70040509  .00000000  00000+0  00000-0 0  9991
2 10060  80.0000 180.0000 0000000   0.0000 180.0000 15.59190035    14
CTC2_L_00041016-02
1 10061U 26870UP  26075.70040509  .00000000  00000+0  00000-0 0  9995
2 10061  80.0000 180.0000 0000000   0.0000 270.0000 15.59190035    15
